24903,IRIDIUM 26,1997,100.2,-1.0,-,86.4,Inactive,0,LEO,USA,USA,Unknown,Unknown,Unknown,1 24903U 97043A   25099.60253916  .00000772  00000+0  25365-3 0  9997,2 24903  86.3956 139.4374 0002169  89.0884 271.0562 14.37073483446897,14.37073483,0.0002169,LEO
24907,IRIDIUM 22,1997,100.29,-1.0,-,86.4,Inactive,0,LEO,USA,USA,Unknown,Unknown,Unknown,1 24907U 97043E   25099.47590876  .00000648  00000+0  21676-3 0  9998,2 24907  86.3969 142.9678 0002279  93.8324 266.3133 14.35896549446913,14.35896549,0.0002279,LEO
24925,DUMMY MASS 1,1997,96.84,-1.0,-,86.34,Inactive,0,LEO,PRC,China,Unknown,Unknown,Unknown,1 24925U 97048A   25099.57336323  .00000852  00000+0  92189-4 0  9994,2 24925  86.3396 167.0421 0008114  45.2973 314.8911 14.86916357495177,14.86916357,0.0008114,LEO
24926,DUMMY MASS 2,1997,96.86,-1.0,-,86.34,Inactive,0,LEO,PRC,China,Unknown,Unknown,Unknown,1 24926U 97048B   25099.59141128  .00000843  00000+0  91708-4 0  9990,2 24926  86.3398 168.6265 0009216  53.1637 307.0431 14.86669286494718,14.86669286,0.0009216,LEO
24944,IRIDIUM 29,1997,100.25,-1.0,-,86.4,Inactive,0,LEO,Kazakhstan,USA,Unknown,Unknown,Unknown,1 24944U 97051A   25099.24433619  .00000836  00000+0  27888-3 0  9994,2 24944  86.4019 172.7965 0002394  98.7012 261.4456 14.36395945443373,14.36395945,0.0002394,LEO
24946,IRIDIUM 33,1997,100.36,-1.0,-,86.39,Inactive,0,LEO,Kazakhstan,USA,Unknown,Unknown,Unknown,1 24946U 97051C   25099.56938287  .00000542  00000+0  18403-3 0  9999,2 24946  86.3934 171.9155 0005926 312.8828  47.1870 14.34843977442909,14.34843977,0.0005926,LEO
24948,IRIDIUM 28,1997,100.19,-1.0,-,86.4,Inactive,0,LEO,Kazakhstan,USA,Unknown,Unknown,Unknown,1 24948U 97051E   25099.47121839  .00000753  00000+0  24609-3 0  9997,2 24948  86.4021 170.2594 0001910  86.9424 273.1992 14.37324735443971,14.37324735,0.000191,LEO
24967,IRIDIUM 36,1997,100.17,-1.0,-,86.4,Inactive,0,LEO,USA,USA,Unknown,Unknown,Unknown,1 24967U 97056C   25099.37545464  .00000980  00000+0  32064-3 0  9992,2 24967  86.4032 201.8695 0001959  99.0816 261.0603 14.37537590442339,14.3753759,0.0001959,LEO
